ONEWEB-0509             
1 54127U 22138Q   23275.89585512  .00000010  00000+0 -80402-5 0  9997
2 54127  87.9225 141.6717 0001914  79.8850 280.2498 13.19725209 46454
ONEWEB-0510             
1 54128U 22138R   23276.56650085  .00000054  00000+0  10064-3 0  9993
2 54128  87.9209 111.0080 0001892  72.6117 287.5224 13.20771800 49813
ONEWEB-0511             
1 54129U 22138S   23276.42342187  .00003586  00000+0  89244-2 0  9998
2 54129  87.9226 141.5680 0001335  95.7171 264.4113 13.19709217 47422
ONEWEB-0512             
1 54130U 22138T   23275.88479970  .00000020  00000+0  18518-4 0  9998
2 54130  87.9225 141.6739 0002317  82.5901 277.5495 13.19726037 47321
ONEWEB-0513             
1 54131U 22138U   23275.77975788 -.00000017  00000+0 -74556-4 0  9997
2 54131  87.9226 141.6990 0002463  89.9625 270.1790 13.19725414 46322
ONEWEB-0514             
1 54132U 22138V   23275.90060687  .00000345  00000+0  82877-3 0  9992
2 54132  87.9230 141.6737 0001772  80.9049 279.2284 13.19725198 46473
ONEWEB-0515             
1 54133U 22138W   23276.55385934  .00000107  00000+0  23127-3 0  9999
2 54133  87.9156 111.0394 0001266  51.7883 308.3365 13.20772843 49806
ONEWEB-0516             
1 54134U 22138X   23276.55766343  .00000059  00000+0  11481-3 0  9993
2 54134  87.9227 141.5396 0001832  76.3467 283.7869 13.19723519 47432
